{
  "type": "Feature",
  "geometry": {
    "type": "Polygon",
    "coordinates": [
      [
        [
          35.5,
          36.6
        ],
        [
          36.3,
          36.0
        ],
        [
          37.5,
          36.0
        ],
        [
          39.0,
          36.6
        ],
        [
          41.5,
          38.4
        ],
        [
          41.5,
          39.5
        ],
        [
          38.8,
          39.5
        ],
        [
          35.5,
          38.0
        ],
        [
          35.5,
          36.6
        ]
      ]
    ]
  },
  "properties": {
    "id": "turkiye-eaf",
    "name": "Türkiye, East Anatolian Fault corridor",
    "depth_min_km": 0.0,
    "depth_max_km": 50.0,
    "tectonic_setting": "transform",
    "cell_size_deg": 0.1,
    "target_min_magnitude": 4.0,
    "magnitude_bin_width": 0.1,
    "magnitude_max": 8.95,
    "mc": null,
    "description": "Corridor defined by rupture, not an official region: an octagon along the left-lateral East Anatolian Fault from the Amanos/Hatay segment near 36 E, 36 N to the Karliova junction near 41 E, 39.3 N, about 150 km wide. Includes the 2023 Kahramanmaras doublet.",
    "references": [
      "Duman & Emre 2013, Geol. Soc. London Spec. Publ. 372 (EAF segmentation)"
    ]
  }
}
