{"type":"FeatureCollection","metadata":{"generated":1788430092000,"url":"https://earthquake.usgs.gov/fdsnws/event/1/query?format=geojson&starttime=2026-08-20T00%3A00%3A00&endtime=2026-09-01T00%3A00%3A00&minmagnitude=4&minlongitude=80&maxlongitude=89&minlatitude=26&maxlatitude=31&orderby=time-asc","title":"USGS Earthquakes","status":200,"api":"2.7.0","count":2},"features":[{"type":"Feature","properties":{"mag":5.2,"place":"55 km NW of Kodāri̇̄, Nepal","time":1787712730000,"updated":1787900310526,"tz":null,"url":"https://earthquake.usgs.gov/earthquakes/eventpage/us7000tbwb","detail":"https://earthquake.usgs.gov/fdsnws/event/1/query?eventid=us7000tbwb&format=geojson","felt":2,"cdi":2,"mmi":null,"alert":null,"status":"reviewed","tsunami":0,"sig":601,"net":"us","code":"7000tbwb","ids":",us7000tbwb,","sources":",us,","types":",dyfi,general-header,general-text,origin,phase-data,significance,","nst":0,"dmin":null,"rms":11.91,"gap":null,"magType":"ms_vx","type":"landslide","title":"M 5.2 Landslide - 55 km NW of Kodāri̇̄, Nepal"},"geometry":{"type":"Point","coordinates":[85.515,28.271,0]},"id":"us7000tbwb"},
{"type":"Feature","properties":{"mag":4.2,"place":"55 km NW of Kodāri̇̄, Nepal","time":1787724035000,"updated":1787872929676,"tz":null,"url":"https://earthquake.usgs.gov/earthquakes/eventpage/us7000tc90","detail":"https://earthquake.usgs.gov/fdsnws/event/1/query?eventid=us7000tc90&format=geojson","felt":null,"cdi":null,"mmi":null,"alert":null,"status":"reviewed","tsunami":0,"sig":271,"net":"us","code":"7000tc90","ids":",us7000tc90,","sources":",us,","types":",general-header,origin,phase-data,","nst":0,"dmin":null,"rms":1.42,"gap":null,"magType":"ms_vx","type":"landslide","title":"M 4.2 Landslide - 55 km NW of Kodāri̇̄, Nepal"},"geometry":{"type":"Point","coordinates":[85.515,28.27,0]},"id":"us7000tc90"}]}