{"type":"FeatureCollection","features":[{"type":"Feature","properties":{"catalog_id":"GAF_14","catalog_name":"HimaTibetMap","slip_type":"Normal","reference":"Hager et al., 2006","fs_name":"Pum Qu - Xainza Rift","exposure_quality":"1"},"geometry":{"type":"LineString","coordinates":[[88.68380382237825,30.87339412756053],[88.69438666474866,30.796962488218696],[88.66969336588438,30.7734450607289],[88.64970355251805,30.745224147741148],[88.66028639488846,30.69818929276156],[88.6555829093905,30.665264894275843],[88.5873823696701,30.649978566407476],[88.541523386065,30.625285267543195],[88.51565421582623,30.55002949957585],[88.54975448568642,30.50181877322177],[88.5426992574395,30.471246117485038],[88.50507137345582,30.425387133879937],[88.46979523222113,30.350131365912596],[88.51212660170276,30.221961386093213],[88.48978504558745,30.14552974675138]]}},{"type":"Feature","properties":{"catalog_id":"GAF_15","catalog_name":"HimaTibetMap","slip_type":"Normal","reference":"Murphy, et al., 2002","fs_name":"Gurla Mandhata detachment","exposure_quality":"1"},"geometry":{"type":"LineString","coordinates":[[81.4187876591056,30.142157407486987],[81.3478919643924,30.15161016678208],[81.30017317540752,30.179481827718458],[81.26685553799737,30.199662289694896],[81.22616675479767,30.231071174971856],[81.2017772794879,30.2710461198698],[81.20237214473936,30.323394261998068],[81.18987997445875,30.345999141553456],[81.17322374741794,30.383475652395283],[81.15775725088004,30.420357297985653],[81.15716238562858,30.461403000336226],[81.18036213043543,30.479248957879953],[81.21057621893608,30.498983354457053],[81.26364326563949,30.51434600771595]]}},{"type":"Feature","properties":{"catalog_id":"GAF_30","catalog_name":"HimaTibetMap","slip_type":"Normal","exposure_quality":"1"},"geometry":{"type":"LineString","coordinates":[[84.00835522495152,29.759469289562993],[83.95633586709573,29.679333370344],[83.90984553931014,29.500583932128656],[83.91650803012647,29.433007239563075],[83.899547164382,29.271781022382914],[83.87522438167531,29.13529701005027],[83.83334586797271,29.04011856981706],[83.77183680097198,28.9123811714874],[83.72139222764838,28.80102239641454],[83.67189943872711,28.754384960700264],[83.62811735621983,28.713458231399983],[83.58243170490789,28.68585648373235],[83.59670847094287,28.558317373819843]]}},{"type":"Feature","properties":{"catalog_id":"GAF_31","catalog_name":"HimaTibetMap","slip_type":"Normal","exposure_quality":"1"},"geometry":{"type":"LineString","coordinates":[[85.65789848569125,29.204388201939658],[85.64490367082838,29.145945743641636],[85.62348852177591,29.107398475347185],[85.6318116204909,29.047867010737598],[85.6082599713386,29.03934589058044],[85.58541714568263,29.014599496119803],[85.5405075922897,29.008736712937083],[85.50879850129489,29.00032273008482],[85.4933101089477,28.985137971266084],[85.54972523059517,28.921324624691255],[85.56317813254576,28.89556633569902],[85.55400826040567,28.870880051367653],[85.51263852617588,28.858124547465803],[85.48833386188902,28.80004179133434],[85.47529042928885,28.721781195733314],[85.48897483582938,28.679451767858332],[85.50444133236729,28.644949583273792],[85.51752836789936,28.62115497321549],[85.53775378644892,28.606878207180507],[85.56511758801597,28.606878207180507]]}},{"type":"Feature","properties":{"catalog_id":"GAF_145","catalog_name":"HimaTibetMap","slip_type":"Normal","reference":"Murphy et al., 2010 EPSL","exposure_quality":"1"},"geometry":{"type":"LineString","coordinates":[[85.60233916623972,30.102925595102686],[85.60667022914834,30.089932406376846],[85.60767207192775,30.032201818305317],[85.57318428405769,29.9474193397914],[85.60048711612149,29.879162259631883],[85.62567375417049,29.83498039467008],[85.64000437305594,29.79725376344047],[85.64598248081664,29.755867295347038],[85.6687161300474,29.724343301747055],[85.69660273977046,29.70464080574706],[85.7132572427995,29.66686926854366],[85.71702934459779,29.644775529439396],[85.74127857044392,29.617293073480432]]}},{"type":"Feature","properties":{"catalog_id":"GAF_146","catalog_name":"HimaTibetMap","slip_type":"Normal","reference":"Styron et al., 2010","fs_name":"South Lunggar Detachment","exposure_quality":"1"},"geometry":{"type":"LineString","coordinates":[[83.16305891940662,30.862816089135904],[83.2879582275741,30.906244331448526],[83.35645952707628,30.904754089363664],[83.37977824493342,30.941873681054616],[83.3940550109684,30.99564949978638],[83.3941659214744,31.07291551700738],[83.37977824493342,31.115098442279063],[83.39357911876724,31.13365823812454],[83.4178496210267,31.160784093591005],[83.45354153611416,31.17601264402832],[83.49256469660978,31.183626919246976],[83.50172562148222,31.21063380166315],[83.54455591958717,31.24751544725352],[83.55704808986778,31.282612497089517],[83.56560959733942,31.30776181226897],[83.56716079914256,31.33852983072653],[83.5362874079164,31.346162124929158],[83.49339750796182,31.3795755330771],[83.46365424538894,31.440846653977232]]}},{"type":"Feature","properties":{"catalog_id":"GAF_173","catalog_name":"HimaTibetMap","slip_type":"Normal","reference":"Murphy et al., 2010 EPSL","exposure_quality":"1"},"geometry":{"type":"LineString","coordinates":[[85.27054881020418,29.8640070603041],[85.2450122850597,29.944545331913595],[85.19786793094683,30.037851866095327],[85.1212583555134,30.087942742340257],[85.06032625947721,30.10447526089045],[84.8957968350348,30.216903700926103]]}},{"type":"Feature","properties":{"catalog_id":"GAF_174","catalog_name":"HimaTibetMap","net_slip_rate":"(6,1,11)","slip_type":"Dextral","reference":"Murphy, et al., 2000; Wright et al., 2004; Brown et al., 2002; Chevalier et al., 2005, 2011","fs_name":"Karakoram Fault","exposure_quality":"1"},"geometry":{"type":"LineString","coordinates":[[82.33462212788116,30.606290005439824],[82.20848290247531,30.674843932290834],[82.0850858341435,30.726944916697597],[81.9973368077742,30.75710864451204],[81.8876505248126,30.75710864451204],[81.66553580181534,30.806467471844766],[81.55310736177968,30.84759982795537],[81.45164755004019,30.875021398695775],[81.27889165437564,30.979223367509306],[81.15001027189575,31.03406650899011],[81.06500340260051,31.09713612169304],[80.98822300452738,31.149237106099804],[80.88127887863982,31.19311161928445],[80.75513965323395,31.250696917839296],[80.61803179953195,31.360383200800907],[80.52754061608861,31.420710656429794],[80.43979158971932,31.47006948376252],[80.38494844823852,31.513943996947166],[80.33833177797983,31.574271452576053],[80.29994157894328,31.64008322235302],[80.27800432235095,31.711379306278065],[80.20122392427783,31.851229317054123],[80.1107327408345,31.95268912879361],[80.009272929095,32.0404381551629],[79.92152390272571,32.1693195376428],[79.88587586076318,32.248842092789964],[79.7103778080246,32.43530877382471],[79.55955916895239,32.61354898363733],[79.4580993572129,32.704040167080656],[79.27163267617816,32.90695979055964],[79.01935422536644,33.164722555519425],[78.90144147118271,33.30183040922144],[78.78627087407301,33.41974316340517],[78.6628738057412,33.597983373217794],[78.59980419303827,33.72960691277173],[78.41059535492948,33.970916735287275]]}},{"type":"Feature","properties":{"catalog_id":"GAF_187","catalog_name":"HimaTibetMap","slip_type":"Normal","reference":"Styron et al., 2010; Elliot et al., 2010","fs_name":"Palung Co fault","exposure_quality":"1"},"geometry":{"type":"LineString","coordinates":[[83.66848081168779,31.245521193401007],[83.63375010905048,31.183005928653866],[83.59901940641319,31.125121424258364],[83.57123484430335,31.05102925863212],[83.53881952184186,30.976937093005876],[83.50640419938038,30.88895264632471],[83.46472735621562,30.833383522105027],[83.47861963727054,30.745399075423865],[83.485565777798,30.65046848821524],[83.51566572008366,30.569430182061538],[83.5202964804353,30.523122578545134]]}},{"type":"Feature","properties":{"catalog_id":"GAF_196","catalog_name":"HimaTibetMap","slip_type":"Normal","reference":"Dewane et al., 2006","fs_name":"Tangra Yum Co Rift","exposure_quality":"1"},"geometry":{"type":"LineString","coordinates":[[86.6668538161831,30.818194671188504],[86.66690429810431,30.821940518893303],[86.64246954046652,30.87081003416888],[86.63025216164763,30.968549064720037],[86.61897458119941,31.050311522969565],[86.63883328506121,31.092103088145453],[86.69039925737141,31.113278013805406],[86.80839790886344,31.118189953345798]]}},{"type":"Feature","properties":{"catalog_id":"GAF_197","catalog_name":"HimaTibetMap","slip_type":"Normal","reference":"Dewane et al., 2006","fs_name":"Tangra Yum Co Rift","exposure_quality":"1"},"geometry":{"type":"LineString","coordinates":[[86.37932599667495,30.89712438854804],[86.38308519015769,30.82569971237604],[86.40658014942478,30.777769995471143],[86.47424563211405,30.74957604435062],[86.52155159358571,30.696515630579],[86.54163758536453,30.678866187869986],[86.54823034364145,30.668408709223836],[86.55186772751837,30.659087913039226],[86.55141305453375,30.652267818269998],[86.54913968961067,30.647948424916155],[86.54231959484144,30.641583003131544],[86.53686351902607,30.635899590823854],[86.53118010671838,30.631580197470008],[86.52208664702607,30.621350055316167],[86.51731258068762,30.611347249654635],[86.51572122524146,30.60589117383925],[86.51185650487223,30.59747972362387],[86.50912846696454,30.588386263931568],[86.50549108308762,30.580884159685418],[86.49958033428763,30.569972008054656],[86.50094435324147,30.55542247254697],[86.513902533303,30.53859957211621],[86.51890393613377,30.53177947734698],[86.53549950007222,30.522004008177756],[86.5470936611799,30.51586592288545],[86.56118852370298,30.51200120251622],[86.57437404025681,30.50995517408545],[86.58665021084143,30.50813648214699],[86.59551633404142,30.504271761777762],[86.60256376530296,30.500179704916228],[86.60119974634911,30.490858908731617],[86.5977896989645,30.480628766577773],[86.59256095964142,30.47153530688547],[86.5916516136722,30.46153250122394],[86.58778689330296,30.453348387500863]]}},{"type":"Feature","properties":{"catalog_id":"GAF_198","catalog_name":"HimaTibetMap","slip_type":"Normal","reference":"Dewane et al., 2006","fs_name":"Tangra Yum Co Rift","exposure_quality":"1"},"geometry":{"type":"LineString","coordinates":[[86.42067822329373,30.149773664188082],[86.40131440392496,30.1022442893738],[86.4153971816477,30.052954567344177],[86.43300065380114,30.001904498099208],[86.43631017708715,29.982047358383163]]}},{"type":"Feature","properties":{"catalog_id":"GAF_199","catalog_name":"HimaTibetMap","slip_type":"Normal","reference":"Dewane et al., 2006","fs_name":"Tangra Yum Co Rift","exposure_quality":"1"},"geometry":{"type":"LineString","coordinates":[[86.4443249198605,29.91859630401781],[86.42738571747495,29.895418222143558],[86.41445279702367,29.86200817764443],[86.39059261560745,29.856055009311696],[86.28665039561974,29.842518985019936],[86.2216811621715,29.80841331731694],[86.23968312876823,29.732772148888053],[86.22478583363124,29.67788737733074],[86.22400176546614,29.620650401278116],[86.21459294748489,29.586935470178624],[86.23027431078698,29.55478867540934],[86.20975812692355,29.51527602500569]]}},{"type":"Feature","properties":{"catalog_id":"GAF_200","catalog_name":"HimaTibetMap","slip_type":"Normal","reference":"Dewane et al., 2006","fs_name":"Tangra Yum Co Rift","exposure_quality":"1"},"geometry":{"type":"LineString","coordinates":[[86.20975812692355,29.51527602500569],[86.18871869803644,29.503040176512446],[86.18950276620156,29.422281155506685]]}},{"type":"Feature","properties":{"catalog_id":"GAF_201","catalog_name":"HimaTibetMap","slip_type":"Normal","exposure_quality":"1"},"geometry":{"type":"LineString","coordinates":[[86.95978994851109,30.152766229245458],[86.93523559741064,30.133122748365093],[86.89398428756188,30.103657527044547],[86.89201993947384,30.054548824843636],[86.87139428454945,30.008386644774777],[86.84968528392052,29.955669456209815],[86.81070571774299,29.921020952940903],[86.79282036102799,29.85909619008401],[86.7554977473553,29.798201399354877],[86.72408445957072,29.765102688230805],[86.72311367810325,29.762745076095527]]}},{"type":"Feature","properties":{"catalog_id":"GAF_202","catalog_name":"HimaTibetMap","slip_type":"Normal","reference":"Hager et al., 2006","fs_name":"Pum Qu - Xainza Rift","exposure_quality":"1"},"geometry":{"type":"LineString","coordinates":[[88.47920220321704,30.124364062010557],[88.43099147686296,30.085560306652397],[88.40982579212213,30.046756551294234],[88.40982579212213,30.013832152808522],[88.39806707837724,29.97855601157383],[88.3910118501303,29.947983355837096],[88.38513249325786,29.897420886734036],[88.3674944226405,29.851561903128935],[88.3580874516446,29.813934019145265],[88.34868048064867,29.78453723478302],[88.3463287378997,29.759843935918738],[88.31575608216296,29.735150637054453],[88.30517323979255,29.677532939704456],[88.30517323979255,29.619915242354455],[88.31340433941398,29.574056258749355],[88.31222846803949,29.549362959885073]]}},{"type":"Feature","properties":{"catalog_id":"GAF_232","catalog_name":"HimaTibetMap","slip_type":"Dextral","reference":"Armijo, et al., 1986, 1989; Taylor, et al., 2003; Taylor and Peltzer, 2006","fs_name":"Gyaring Co Fault","exposure_quality":"1"},"geometry":{"type":"LineString","coordinates":[[87.43873306917465,31.550164940156062],[87.57955507156288,31.5052217479045],[87.92934036134119,31.368864770533293],[88.16055436644889,31.28586487126386],[88.27912565111951,31.226579228928554],[88.60519668396371,31.00722235228791],[88.72969653286785,30.906436760317888],[88.87791063870613,30.799722604114333],[88.97276766644262,30.70486557637784],[89.04391043724499,30.63372280557547]]}},{"type":"Feature","properties":{"catalog_id":"GAF_340","catalog_name":"HimaTibetMap","slip_type":"Normal","reference":"Murphy, et al., 2002","fs_name":"Gurla Mandhata detachment","exposure_quality":"1"},"geometry":{"type":"LineString","coordinates":[[81.45961567407969,30.547349131866813],[81.48245849973566,30.560674113499463],[81.50815667859862,30.585420507960098],[81.54432448588723,30.611118686823065],[81.5728780179572,30.633009728076704],[81.5836807709237,30.654139341808488],[81.61342403349659,30.69994396617073],[81.61342403349659,30.73028209399507],[81.64495189182385,30.75705103031066]]}},{"type":"Feature","properties":{"catalog_id":"GAF_536","catalog_name":"HimaTibetMap","net_slip_rate":"(15,10,21)","slip_type":"Reverse","reference":"Lave and Avouac, 2000, 2001; Lave, et al., 2005; Lillie and Yeats, 1991","fs_name":"Main Frontal Thrust","exposure_quality":"1"},"geometry":{"type":"LineString","coordinates":[[79.43976652459875,29.26709089906263],[79.59903726523814,29.205437709137705],[79.75317024005045,29.09754462676909],[79.90730321486275,29.071855797633706],[80.09226278463753,29.092406860942013],[80.13850267708122,29.11295792425032]]}},{"type":"Feature","properties":{"catalog_id":"GAF_537","catalog_name":"HimaTibetMap","net_slip_rate":"(15,10,21)","slip_type":"Reverse","reference":"Lave and Avouac, 2000, 2001; Lave, et al., 2005; Lillie and Yeats, 1991","fs_name":"Main Frontal Thrust","exposure_quality":"1"},"geometry":{"type":"LineString","coordinates":[[80.15905374038952,29.0513047343254],[80.27722235441229,28.99992707605463],[80.4108042659163,28.99992707605463],[80.4775952216683,28.938273886129707],[80.60603936734522,28.892033993686013],[80.80641223460121,28.8509318670694],[81.00164733603015,28.794416442971553],[81.19688243745907,28.660834531467554],[81.37670424140676,28.56835474658017],[81.36129094392552,28.47073719586571],[81.47432179212122,28.388532942632477],[81.5668015770086,28.321741986880475],[81.67469465937721,28.3166042210534],[81.86479199497906,28.172746777895245],[82.04975156475383,28.06999146135371],[82.1679201787766,28.03402710056417]]}},{"type":"Feature","properties":{"catalog_id":"GAF_538","catalog_name":"HimaTibetMap","net_slip_rate":"(15,10,21)","slip_type":"Reverse","reference":"Lave and Avouac, 2000, 2001; Lave, et al., 2005; Lillie and Yeats, 1991","fs_name":"Main Frontal Thrust","exposure_quality":"1"},"geometry":{"type":"LineString","coordinates":[[81.79800103922706,28.10081805631617],[81.93158295073106,27.93640954984971],[82.1011292230246,27.92099625236848],[82.2347111345286,27.813103169999863],[82.35801751437845,27.73089891676663],[82.50701272336367,27.689796790150016],[82.74334995140921,27.73603668259371],[82.9694116478006,27.76686327755617],[83.14923345174829,27.76686327755617],[83.48832599633536,27.674383492668785],[83.7041121610726,27.61786806857094],[83.86081401879844,27.507406103288787],[83.98925816447536,27.430339615882634],[84.14339113928767,27.425201850055554],[84.24614645582922,27.358410894303557],[84.41055496229568,27.3481353626494],[84.5852390004163,27.342997596822325],[84.70854538026614,27.342997596822325]]}},{"type":"Feature","properties":{"catalog_id":"GAF_539","catalog_name":"HimaTibetMap","net_slip_rate":"(15,10,21)","slip_type":"Reverse","reference":"Lave and Avouac, 2000, 2001; Lave, et al., 2005; Lillie and Yeats, 1991","fs_name":"Main Frontal Thrust","exposure_quality":"1"},"geometry":{"type":"LineString","coordinates":[[84.5595501712809,27.38923748926602],[84.74964750688275,27.36868642595771],[84.95515813996583,27.276206641070324],[85.09901558312399,27.276206641070324],[85.32507727951537,27.18886462201002],[85.6076544000046,27.111798134603866],[85.7412363115086,27.106660368776787],[85.97243577372706,27.01931834971648],[86.15739534350183,26.962802925618632]]}},{"type":"Feature","properties":{"catalog_id":"GAF_540","catalog_name":"HimaTibetMap","net_slip_rate":"(15,10,21)","slip_type":"Reverse","reference":"Lave and Avouac, 2000, 2001; Lave, et al., 2005; Lillie and Yeats, 1991","fs_name":"Main Frontal Thrust","exposure_quality":"1"},"geometry":{"type":"LineString","coordinates":[[86.05977779278737,26.916563033174942],[86.17280864098306,26.865185374904172],[86.2961150208329,26.865185374904172],[86.41428363485568,26.860047609077096],[86.55300331218675,26.824083248287558]]}},{"type":"Feature","properties":{"catalog_id":"GAF_541","catalog_name":"HimaTibetMap","net_slip_rate":"(15,10,21)","slip_type":"Reverse","reference":"Lave and Avouac, 2000, 2001; Lave, et al., 2005; Lillie and Yeats, 1991","fs_name":"Main Frontal Thrust","exposure_quality":"1"},"geometry":{"type":"LineString","coordinates":[[86.53245224887844,26.695639102610635],[86.78934054023229,26.66995027347525],[86.90237138842798,26.675088039302327],[86.97943787583414,26.772705590016788]]}},{"type":"Feature","properties":{"catalog_id":"GAF_542","catalog_name":"HimaTibetMap","net_slip_rate":"(15,10,21)","slip_type":"Reverse","reference":"Lave and Avouac, 2000, 2001; Lave, et al., 2005; Lillie and Yeats, 1991","fs_name":"Main Frontal Thrust","exposure_quality":"1"},"geometry":{"type":"LineString","coordinates":[[87.03338441701842,26.80353218497925],[87.23375728427442,26.80353218497925],[87.49578334145535,26.741878995054325],[87.67046737957597,26.741878995054325],[87.79891152525289,26.69050133678356],[87.99928439250888,26.716190165918942],[88.18938172811073,26.777843355843864],[88.45140778529165,26.860047609077096],[88.65691841837473,26.90114973569371],[88.78536256405165,26.916563033174942],[88.96004660217227,26.921700799002018],[89.04738862123257,26.875460906558327],[89.1963838302178,26.741878995054325],[89.29913914675934,26.76756782418971]]}},{"type":"Feature","properties":{"catalog_id":"GAF_555","catalog_name":"HimaTibetMap","slip_type":"Syncline","exposure_quality":"1"},"geometry":{"type":"LineString","coordinates":[[82.18072222217761,27.995595370989903],[82.37585339488567,27.900817372817418],[82.52080798032593,27.850640785549633],[82.7103639766709,27.850640785549633]]}},{"type":"Feature","properties":{"catalog_id":"GAF_556","catalog_name":"HimaTibetMap","slip_type":"Syncline","exposure_quality":"1"},"geometry":{"type":"LineString","coordinates":[[83.88672618928231,27.616483378299968],[84.17106018379977,27.605333025573792],[84.3327402983293,27.62763373102614],[84.47211970740649,27.63320890738923],[84.61149911648367,27.605333025573792],[84.7341529964716,27.555156438306007]]}},{"type":"Feature","properties":{"catalog_id":"GAF_557","catalog_name":"HimaTibetMap","slip_type":"Anticline","exposure_quality":"1"},"geometry":{"type":"LineString","coordinates":[[84.3383154746924,27.516130203764394],[84.6003487637575,27.46595361649661],[84.75087852556085,27.46595361649661],[84.85123170009642,27.432502558318088],[84.97388558008434,27.393476323776476],[85.15229122370313,27.393476323776476]]}},{"type":"Feature","properties":{"catalog_id":"GAF_558","catalog_name":"HimaTibetMap","slip_type":"Anticline","exposure_quality":"1"},"geometry":{"type":"LineString","coordinates":[[83.05881249936385,27.928693254632854],[83.40447343387527,27.850640785549633],[83.64978119385111,27.79488902191876],[83.92296483564239,27.7781634928295],[84.1348215374397,27.7781634928295],[84.40243000286789,27.822764903734196]]}},{"type":"Feature","properties":{"catalog_id":"GAF_840","catalog_name":"HimaTibetMap","slip_type":"Normal","reference":"Dewane et al., 2006","fs_name":"Tangra Yum Co Rift","exposure_quality":"1"},"geometry":{"type":"LineString","coordinates":[[86.53733199477607,30.426973532982338],[86.42366347883573,30.40074233699611],[86.35137487250786,30.352890345791593],[86.33523865925962,30.28394470736731],[86.32661671229211,30.209041543087004],[86.34224399117073,30.199880724434017]]}},{"type":"Feature","properties":{"catalog_id":"GAF_841","catalog_name":"HimaTibetMap","slip_type":"Normal","fs_name":"Kung Co fault","exposure_quality":"1"},"geometry":{"type":"LineString","coordinates":[[86.51547266478754,28.63450847392339],[86.47612587080819,28.71757392787978],[86.46431806070032,28.780398204386163],[86.47612587080819,28.831242443820106],[86.49106298441382,28.845350161976068],[86.46813876408797,28.875915789077197],[86.442157981052,28.942396028022156],[86.41694133869358,29.01040454832217],[86.39860196243289,29.083762053364886],[86.37262117939693,29.121204946563772],[86.34918753195274,29.141964101636624],[86.33696128111228,29.151133789766963],[86.32371617603512,29.159284623660596],[86.30843336248456,29.170492020264344],[86.29824482011752,29.178642854157978],[86.28398086080365,29.188831396525025]]}},{"type":"Feature","properties":{"catalog_id":"GAF_842","catalog_name":"HimaTibetMap","slip_type":"Normal","exposure_quality":"1"},"geometry":{"type":"LineString","coordinates":[[88.22217743229018,29.65886112880602],[88.18579904974872,29.633772589122252],[88.16949149895427,29.59363092562822],[88.17200035292264,29.533418430387172],[88.18329019578034,29.480732497051253],[88.1757636338752,29.40797573196832],[88.13813082434956,29.36030750656916],[88.12809540847604,29.325183551011882],[88.12056884657092,29.278769752596908],[88.10300686879228,29.24991793196057],[88.10175244180809,29.231101527197744]]}},{"type":"Feature","properties":{"catalog_id":"GAF_849","catalog_name":"HimaTibetMap","slip_type":"Normal","reference":"Murphy et al., 2010 EPSL","exposure_quality":"1"},"geometry":{"type":"LineString","coordinates":[[83.91880454940762,31.16140647694166],[83.95571448037695,31.054367677130625],[84.02030685957327,30.94732887731959],[84.10335420425425,30.85136305679935],[84.17901956274135,30.784925181054568],[84.27683087981006,30.6852683674374],[84.32965064506391,30.579796350585024],[84.3565942293374,30.529142412150858],[84.3635995612485,30.471483141805585]]}},{"type":"Feature","properties":{"catalog_id":"GAF_850","catalog_name":"HimaTibetMap","slip_type":"Normal","reference":"Murphy et al., 2010 EPSL","fs_name":"Lopukangri Rift","exposure_quality":"1"},"geometry":{"type":"LineString","coordinates":[[84.52250215612476,29.92753146805086],[84.5337174230786,30.030590677896956],[84.59503091704097,30.10882249748439],[84.59646790820223,30.136125329548197],[84.57096131508999,30.151572984531665],[84.53645107423301,30.263411312253545],[84.51827103891233,30.28871329771173]]}},{"type":"Feature","properties":{"catalog_id":"GAF_851","catalog_name":"HimaTibetMap","slip_type":"Normal","reference":"Murphy et al., 2010 EPSLc","exposure_quality":"1"},"geometry":{"type":"LineString","coordinates":[[84.81017938231678,29.97567494455216],[84.86554427877076,30.088250234008594],[84.8692352718677,30.163915592495705],[84.8360163339953,30.230353468240487],[84.80095189957444,30.280181875049074],[84.76773296170205,30.33001028185766],[84.71790455489347,30.38352968176318],[84.67730363082721,30.413057626538635],[84.60348376888857,30.464731529895687]]}},{"type":"Feature","properties":{"catalog_id":"GAF_856","catalog_name":"HimaTibetMap","slip_type":"Dextral","exposure_quality":"1"},"geometry":{"type":"LineString","coordinates":[[82.49967993599425,29.11052201729287],[82.43851783827041,29.154209229952755],[82.39483062561052,29.205177644722628],[82.3220186045107,29.277989665822442],[82.25066282383288,29.363907850720224],[82.18658824526506,29.441088593086025],[82.13853231133918,29.522638056717817]]}},{"type":"Feature","properties":{"catalog_id":"GAF_857","catalog_name":"HimaTibetMap","slip_type":"Dextral","exposure_quality":"1"},"geometry":{"type":"LineString","coordinates":[[83.1884816555985,28.29065865970895],[83.0661574601508,28.383858046716714],[82.93655206259314,28.449388865706545],[82.83752771389739,28.517832165540373],[82.72685344182567,28.578994263264217],[82.65986638241384,28.62122523550211],[82.61909165059794,28.661999967318003]]}},{"type":"Feature","properties":{"catalog_id":"GAF_858","catalog_name":"HimaTibetMap","slip_type":"Dextral","exposure_quality":"1"},"geometry":{"type":"LineString","coordinates":[[83.04988387630557,28.61922120796486],[82.9626483743313,28.648881278636114],[82.89576782281767,28.682612339399505],[82.85447635188319,28.70645670993914],[82.83063198134354,28.742514050755176],[82.80155348068546,28.772755691439595],[82.78468795030376,28.784968661715993]]}},{"type":"Feature","properties":{"catalog_id":"GAF_867","catalog_name":"HimaTibetMap","slip_type":"Normal","exposure_quality":"1"},"geometry":{"type":"LineString","coordinates":[[88.96802920651075,27.558484775607397],[89.08800889629502,27.64194890763124],[89.19233906132483,27.735846056158064],[89.27058668509717,27.876691778948295],[89.33840129236656,27.9288568614632],[89.42186542439039,27.965372419223627],[89.43751494914487,28.101001633762372],[89.48968003165976,28.132300683271314],[89.56792765543211,28.231414340049625],[89.60965972144403,28.27836291431304]]}},{"type":"Feature","properties":{"catalog_id":"GAF_868","catalog_name":"HimaTibetMap","slip_type":"Sinistral","exposure_quality":"1"},"geometry":{"type":"LineString","coordinates":[[87.84647993244036,28.08013560075641],[88.11773836151785,28.085352109007903],[88.3055326585715,28.101001633762372],[88.48811044737366,28.121867666768335],[88.59244061240346,28.132300683271314],[88.76458538470263,28.174032749283235]]}},{"type":"Feature","properties":{"catalog_id":"GAF_869","catalog_name":"HimaTibetMap","slip_type":"Sinistral","exposure_quality":"1"},"geometry":{"type":"LineString","coordinates":[[87.72650024265609,28.179249257534725],[87.9351605727157,28.215764815295156],[88.12295486976934,28.262713389558566],[88.34726472458343,28.27836291431304],[88.49332695562515,28.309661963821977],[88.7332863351937,28.294012439067508],[88.9367301570018,28.273146406061546],[89.10365842104949,28.28879593081602],[89.24972065209121,28.304445455570487],[89.42708193264188,28.34096101333092],[89.5261955894202,28.37747657109135]]}},{"type":"Feature","properties":{"catalog_id":"GAF_871","catalog_name":"HimaTibetMap","slip_type":"Dextral","fs_name":"Tibrikot Fault","exposure_quality":"1"},"geometry":{"type":"LineString","coordinates":[[82.64098072018375,29.090307983378107],[82.69634507526874,29.07040169840373],[82.78965578608613,29.021258057373238],[82.84813049819836,28.987044130073528],[82.89105342517436,28.957184702611965],[82.92588942387952,28.940388774664832],[82.96445785101737,28.929813560772196],[83.01422356345331,28.913639704230516],[83.05465820480752,28.906796918770574],[83.09820320318897,28.889378919417993],[83.13428334470503,28.87382713428176]]}},{"type":"Feature","properties":{"catalog_id":"GAF_889","catalog_name":"HimaTibetMap","slip_type":"Normal","exposure_quality":"1"},"geometry":{"type":"LineString","coordinates":[[87.85570114104247,28.62684408283872],[87.86874457364264,28.70510467843975],[87.90787487144316,28.79640870664095],[87.90787487144316,28.874669302241976],[87.90787487144316,28.97901676304335],[87.98613546704418,29.070320791244548]]}},{"type":"Feature","properties":{"catalog_id":"GAF_890","catalog_name":"HimaTibetMap","slip_type":"Normal","reference":"Jessup, et al., 2008","fs_name":"Ama Drime Detachment","exposure_quality":"1"},"geometry":{"type":"LineString","coordinates":[[87.36428236479966,28.100711976073907],[87.36618593360433,28.116892310913553],[87.36713771800666,28.126410154936874],[87.36618593360433,28.136879783362524],[87.36999307121366,28.150204764995173],[87.37380020882298,28.164481531030155],[87.37475199322532,28.17590294385814],[87.37380020882298,28.18922792549079],[87.37665556202998,28.2073118291351],[87.37760734643231,28.21587788875609],[87.37951091523698,28.228251085986408],[87.38236626844397,28.240624283216725],[87.38236626844397,28.25109391164238],[87.3861734060533,28.25680461805637],[87.39378768127196,28.271081384091353],[87.40045017208828,28.281551012517006],[87.40425730969761,28.28916528773566],[87.41091980051394,28.290117072137992],[87.42424478214659,28.29297242534499],[87.43566619497457,28.300586700563645],[87.4423286857909,28.310104544586967],[87.45660545182588,28.32057417301262],[87.48515898389584,28.319622388610288],[87.49943574993083,28.321525957414952],[87.52037500678213,28.32533309502428],[87.54131426363344,28.32914023263361],[87.55463924526609,28.331995585840605],[87.5698677957034,28.337706292254598],[87.58224099293372,28.33865807665693],[87.5965177589687,28.344368783070923],[87.60984274060135,28.350079489484916],[87.63554091946432,28.359597333508237],[87.6498176854993,28.372922315140887],[87.67266051115527,28.390054434382865],[87.69074441479958,28.411945475636504],[87.70216582762757,28.430981163683146],[87.70216582762757,28.44335436091346],[87.70216582762757,28.458582911350774],[87.7059729652369,28.477618599397417],[87.70978010284622,28.49284714983473],[87.71358724045555,28.512834622283705],[87.72024973127188,28.542339938756],[87.71929794686955,28.5689899020213],[87.71168367165089,28.59754343409126]]}},{"type":"Feature","properties":{"catalog_id":"GAF_891","catalog_name":"HimaTibetMap","slip_type":"Normal","reference":"Jessup, et al., 2008","fs_name":"Nyonno Ri Detachment","exposure_quality":"1"},"geometry":{"type":"LineString","coordinates":[[87.78378134012752,28.476547841944775],[87.78497107063043,28.456322423395218],[87.78021214861877,28.442045657360236],[87.77545322660711,28.425389430319424],[87.76831484358962,28.40159482026112],[87.75998673006922,28.388507784729054],[87.7587969995663,28.370661827185327],[87.73976131151966,28.354005600144514],[87.73143319799925,28.342108295115363],[87.72429481498176,28.331400720589127],[87.7195358929701,28.319503415559975],[87.71358724045552,28.30641638002791],[87.71001804894678,28.292139613992926],[87.70525912693512,28.285001230975436],[87.70168993542637,28.273103925946284],[87.69693101341471,28.262396351420048],[87.69098236090014,28.25287850739673],[87.68503370838556,28.24336066337341],[87.68146451687682,28.233842819350087],[87.6802747863739,28.22313524482385],[87.6802747863739,28.214807131303445],[87.67789532536807,28.205289287280124],[87.67432613385932,28.195771443256803],[87.6719466728535,28.18625359923348],[87.66361855933309,28.17435629420433],[87.65529044581268,28.160079528169348],[87.65053152380102,28.151751414648942],[87.64696233229228,28.14223357062562],[87.64220341028062,28.126767074087724],[87.64220341028062,28.11011084704691],[87.64696233229228,28.10059300302359],[87.64339314078353,28.08631623698861],[87.64220341028062,28.075608662462372],[87.63744448826895,28.06133189642739],[87.63387529676021,28.042296208380748],[87.63387529676021,28.03396809486034],[87.63030610525146,28.02207078983119],[87.62911637474855,28.004224832287463],[87.62673691374272,27.98756860524665]]}},{"type":"Feature","properties":{"catalog_id":"GAF_892","catalog_name":"HimaTibetMap","slip_type":"Normal","fs_name":"Tingri fault","exposure_quality":"1"},"geometry":{"type":"LineString","coordinates":[[86.58542252075081,28.227924936136848],[86.6597442427118,28.402799576045037],[86.6597442427118,28.507724359989954],[86.61165371673704,28.603905411939458]]}},{"type":"Feature","properties":{"catalog_id":"GAF_894","catalog_name":"HimaTibetMap","slip_type":"Normal","reference":"Murphy et al., 2010 EPSL","fs_name":"Lopukangri Rift","exposure_quality":"1"},"geometry":{"type":"LineString","coordinates":[[84.49441908276637,30.28604392304328],[84.46693662680741,30.334946528499668],[84.41856447316643,30.42190694674236],[84.39972080391514,30.48109863344319],[84.37365288613054,30.591735726366217],[84.3617237210395,30.63636270890304],[84.35803272794257,30.6548176743877]]}},{"type":"Feature","properties":{"catalog_id":"GAF_895","catalog_name":"HimaTibetMap","slip_type":"Normal","reference":"Dewane et al., 2006","fs_name":"Tangra Yum Co Rift","exposure_quality":"1"},"geometry":{"type":"LineString","coordinates":[[86.35679352667842,30.188025547353682],[86.3589490134203,30.154076631169083],[86.30721733161519,30.102344949363978],[86.29913425633315,30.050074395873402],[86.28296810576903,30.02905840014008],[86.27057405700323,29.973015744851214]]}},{"type":"Feature","properties":{"catalog_id":"GAF_896","catalog_name":"HimaTibetMap","slip_type":"Normal","reference":"Dewane et al., 2006","fs_name":"Tangra Yum Co Rift","exposure_quality":"1"},"geometry":{"type":"LineString","coordinates":[[86.39779370949427,29.894523317963237],[86.40131440392496,29.894523317963237],[86.42595926493978,29.9332509567008],[86.43816315118434,29.967627027996517],[86.4478628415228,29.977865590020443]]}},{"type":"Feature","properties":{"catalog_id":"GAF_897","catalog_name":"HimaTibetMap","slip_type":"Normal","reference":"Murphy et al., 2010 EPSL","exposure_quality":"1"},"geometry":{"type":"LineString","coordinates":[[85.77133563556684,29.86014457973218],[85.76055820185744,29.868227655014223],[85.75786384343009,29.87792734535268],[85.75085851151898,29.88601042063473],[85.74277543623694,29.902176571198826],[85.7363089760113,29.91564836333557],[85.7363089760113,29.92373143861762],[85.73253687421301,29.938819845810773],[85.72283718387455,29.95498599637487],[85.71744846701985,29.959296969858627],[85.70828764836686,29.961452456600508],[85.69643247128653,29.978696350535543],[85.69373811285918,29.98893491255947],[85.69751021465747,30.001328961325274],[85.69912682971388,30.011028651663732],[85.70128231645576,30.02072834200219],[85.69912682971388,30.028272545598767],[85.69697134297199,30.039588850993635],[85.69804908634293,30.047671926275683],[85.69804908634293,30.05844935998508],[85.69589359960106,30.072460023807295],[85.69751021465747,30.08108197077481],[85.70343780319763,30.09239827616968]]}},{"type":"Feature","properties":{"catalog_id":"GAF_898","catalog_name":"HimaTibetMap","slip_type":"Normal","reference":"Styron et al., 2010","exposure_quality":"1"},"geometry":{"type":"LineString","coordinates":[[83.23622734533589,30.667224394456653],[83.23048741907071,30.74778928707005],[83.19910775364495,30.804281348392475]]}},{"type":"Feature","properties":{"catalog_id":"GAF_899","catalog_name":"HimaTibetMap","slip_type":"Normal","reference":"Styron et al., 2010","exposure_quality":"1"},"geometry":{"type":"LineString","coordinates":[[83.21028547689953,30.673648939172395],[83.21028547689953,30.645897364514],[83.17996803653924,30.537620791798652],[83.1464026923658,30.477700325342273],[83.10547596306552,30.38632902271839]]}},{"type":"Feature","properties":{"catalog_id":"GAF_900","catalog_name":"HimaTibetMap","slip_type":"Normal","reference":"Murphy et al., 2002","fs_name":"Gurla Mandhata Detachment","exposure_quality":"1"},"geometry":{"type":"LineString","coordinates":[[81.26364326563949,30.51434600771595],[81.29305340367156,30.515940246589853],[81.30447481649955,30.524506306210842],[81.33398013297185,30.52831344382017],[81.36634080265114,30.531168797027167],[81.38632827510011,30.529265228222503],[81.42249608238873,30.522602737406178],[81.4539049676657,30.515940246589853],[81.4957834813683,30.510229540175864],[81.5462280546919,30.494049205336218],[81.5643119583362,30.48643493011756],[81.58715478399218,30.47310994848491],[81.63188865090179,30.46739924207092],[81.66900824259274,30.4550260448406],[81.6947064214557,30.451218907231272],[81.72230816912334,30.449315338426608],[81.74515099477931,30.444556416414947],[81.78227058647026,30.438845710000955],[81.81177590294256,30.43694214119629],[81.84223300381719,30.43218321918463],[81.86793118268015,30.42742429717297],[81.88506330192213,30.426472512770637],[81.92979716883174,30.417906453149648],[81.96786854492503,30.403629687114666],[82.0087952742253,30.389352921079684],[82.0620952007559,30.379835077056363]]}},{"type":"Feature","properties":{"catalog_id":"GAF_901","catalog_name":"HimaTibetMap","slip_type":"Normal","reference":"Pullen et al., 2011","fs_name":"Xiao Gurla Detachment","exposure_quality":"1"},"geometry":{"type":"LineString","coordinates":[[81.9459775036714,30.46073675125459],[81.97072389813204,30.463592104461586],[81.98214531096002,30.473109948484908],[81.98500066416702,30.493097420933882],[81.9726274669367,30.504518833761868],[81.9516882100854,30.51022954017586],[81.92789360002709,30.526409875015506],[81.90124363676179,30.541638425452817],[81.87840081110582,30.55210805387847],[81.85555798544985,30.564481251108788],[81.84699192582886,30.57019195752278],[81.82414910017289,30.582565154753098],[81.80416162772391,30.58732407676476],[81.78944205432852,30.606043055504536],[81.77028494490531,30.611645606373585],[81.76989738923996,30.631106159272036],[81.78798129288427,30.63776865008836],[81.81653482495423,30.63776865008836],[81.84413657262186,30.63681686568603],[81.87078653588716,30.633961512479033],[81.89743649915246,30.6330097280767],[81.91837575600377,30.635865081283697],[81.92694181562476,30.644431140904686],[81.96310962291338,30.643479356502354],[82.00308456781133,30.638720434490693],[82.03830059069762,30.634913296881365],[82.07637196679089,30.62349188405338],[82.10968442087251,30.61968474644405]]}},{"type":"Feature","properties":{"catalog_id":"GAF_902","catalog_name":"HimaTibetMap","slip_type":"Dextral","reference":"Murphy and Copeland, 2005","fs_name":"Humla fault","exposure_quality":"1"},"geometry":{"type":"LineString","coordinates":[[81.86128739273684,29.93735853133126],[81.83703249061033,29.97374088452102],[81.78043771898182,30.03033565614954],[81.72788543104105,30.066718009339304],[81.59852595303299,30.107142846216817],[81.46916647502495,30.135440232031076],[81.4187876591056,30.142157407486987]]}},{"type":"Feature","properties":{"catalog_id":"GAF_908","catalog_name":"HimaTibetMap","slip_type":"Normal","exposure_quality":"1"},"geometry":{"type":"LineString","coordinates":[[85.30813579938628,28.587842519133865],[85.32003310441543,28.604498746174677],[85.34263798397082,28.62829335623298],[85.36762232453204,28.648518774782538],[85.37832989905827,28.673503115343756],[85.37714016855536,28.69491826439623],[85.37595043805244,28.718712874454532],[85.36643259402912,28.73655883199826],[85.36881205503495,28.75440478954199],[85.37357097704661,28.778199399600293],[85.37832989905827,28.80080427915568],[85.3723812465437,28.82102969770524],[85.36881205503495,28.838875655248966],[85.3652428635262,28.86267026530727],[85.36286340252038,28.88170595335391],[85.36286340252038,28.903121102406384],[85.36881205503495,28.92096705995011],[85.37832989905827,28.94595140051133]]}},{"type":"Feature","properties":{"catalog_id":"GAF_912","catalog_name":"HimaTibetMap","slip_type":"Normal","reference":"Murphy et al., 2010 EPSL","exposure_quality":"1"},"geometry":{"type":"LineString","coordinates":[[84.07668370857874,30.312029524788983],[84.08739128310498,30.347721439876437],[84.11416021942057,30.383413354963892],[84.11951400668369,30.41375148278823],[84.1052372406487,30.456581780893174],[84.08917587885935,30.4744277384369],[84.07132992131562,30.494058291735],[84.04813017650878,30.51190424927873],[84.02493043170193,30.53153480257683],[84.0142228571757,30.561872930401165],[84.00529987840383,30.595780249734247]]}},{"type":"Feature","properties":{"catalog_id":"GAF_913","catalog_name":"HimaTibetMap","slip_type":"Normal","reference":"Murphy et al., 2010 EPSL","exposure_quality":"1"},"geometry":{"type":"LineString","coordinates":[[84.40504932738332,30.1995999922635],[84.39612634861146,30.228153524333464],[84.3800649868221,30.253137864894683],[84.38074231784253,30.287101410888432],[84.34615766748902,30.301321950262746],[84.34020901497443,30.3173833120521],[84.33545009296277,30.325473479471924],[84.32878760214645,30.334991323495245],[84.31308315950797,30.344509167518567],[84.30070996227766,30.347364520725563],[84.2973787168695,30.359261825754714],[84.295951040266,30.365924316571036],[84.29071622605318,30.37163502298503],[84.28215016643219,30.377821621600187],[84.27691535221936,30.382104651410682],[84.26263858618438,30.391146603232837]]}},{"type":"Feature","properties":{"catalog_id":"GAF_914","catalog_name":"HimaTibetMap","slip_type":"Normal","exposure_quality":"1"},"geometry":{"type":"LineString","coordinates":[[83.07933262798498,30.59447154618103],[83.09550363866117,30.62405415502797],[83.11464189058555,30.628838718009064],[83.11787989627943,30.654433963527953],[83.13358433891791,30.668710729562935],[83.13501201552141,30.692981231822404],[83.13786736872841,30.710113351064383],[83.13643969212491,30.73295617672035],[83.12787363250392,30.742949912944837],[83.11787989627943,30.767220415204307],[83.11645221967593,30.777214151428794]]}}]}